OPS 6582 (TRANSIT 5B-5) 
1 00965U 64083D   22186.80008322  .00000044  00000+0  48107-4 0  9994
2 00965  90.0240 195.4885 0041240 172.5186   0.4348 13.56782036848008
OSCAR 7 (AO-7)          
1 07530U 74089B   22186.85332977 -.00000035  00000+0  70890-4 0  9992
2 07530 101.9047 166.7817 0012377   8.7164  51.7540 12.53655653179775
UOSAT 2 (UO-11)         
1 14781U 84021B   22186.86274670  .00000437  00000+0  58989-4 0  9991
2 14781  97.6177 173.4582 0006808 259.8614 100.1833 14.83700305 42774
NOAA 9                  
1 15427U 84123A   22186.88969662  .00000051  00000+0  48841-4 0  9994
2 15427  99.0458 159.5640 0015823 111.5138 302.5212 14.16207105939222
LUSAT (LO-19)           
1 20442U 90005G   22186.88264216  .00000043  00000+0  32280-4 0  9997
2 20442  98.7947 152.0264 0012789 112.4800 247.7739 14.33067897695749
ITAMSAT (IO-26)         
1 22826U 93061D   22186.65325155  .00000033  00000+0  30415-4 0  9992
2 22826  98.8798 217.9526 0008749 352.7237   7.3816 14.30524811501011
RADIO ROSTO (RS-15)     
1 23439U 94085A   22186.84443052 -.00000039  00000+0  10000-3 0  9992
2 23439  64.8157 115.8697 0168083 269.4025  88.7636 11.27572694133565
JAS-2 (FO-29)           
1 24278U 96046B   22186.77037355 -.00000037  00000+0  41473-6 0  9999
2 24278  98.5149 207.9419 0349378 235.6872 121.0742 13.53116746278089
NOAA 15                 
1 25338U 98030A   22187.15233220  .00000125  00000+0  70410-4 0  9992
2 25338  98.6425 216.4423 0009325 239.6266 120.3992 14.26146339255931
TECHSAT 1B (GO-32)      
1 25397U 98043D   22186.84110980  .00000020  00000+0  28226-4 0  9995
2 25397  98.8186 137.3587 0002316  69.8775 290.2652 14.23759984246040
ISS (ZARYA)             
1 25544U 98067A   22187.35288569  .00005588  00000+0  10639-3 0  9993
2 25544  51.6429 241.6676 0004427 338.8725 124.0884 15.49844317348158
ORSTED                  
1 25635U 99008B   22186.58733015  .00000161  00000+0  45113-4 0  9993
2 25635  96.4581  47.2572 0139649 123.0381 238.4323 14.48486213232905
PHASE 3D (AO-40)        
1 26609U 00072B   22185.29830206 -.00000177  00000+0  00000+0 0  9994
2 26609   6.4710 266.6261 7995241  24.7329 358.2487  1.25588976 99361
PCSAT (NO-44)           
1 26931U 01043C   22186.83729385  .00000017  00000+0  38216-4 0  9994
2 26931  67.0518  10.9459 0007355 260.9865  99.0404 14.30713441 84033
SAUDISAT 1C (SO-50)     
1 27607U 02058C   22186.61318871  .00000239  00000+0  53415-4 0  9996
2 27607  64.5540 246.3297 0079366 290.9227  68.3393 14.76151059 51055
CUTE-1 (CO-55)          
1 27844U 03031E   22186.57439291  .00000134  00000+0  79497-4 0  9998
2 27844  98.6777 193.9864 0010902  54.1726 306.0464 14.22462093986489
CUBESAT XI-IV (CO-57)   
1 27848U 03031J   22186.96520314  .00000116  00000+0  72148-4 0  9998
2 27848  98.6823 194.8872 0010902  65.9156 294.3161 14.22018031986348
MOZHAYETS 4 (RS-22)     
1 27939U 03042A   22187.08185581  .00000323  00000+0  65814-4 0  9990
2 27939  98.1944 327.7995 0013678 145.0092 215.1988 14.67377851  3775
INMARSAT 4-F1           
1 28628U 05009A   22186.90232529 -.00000250  00000+0  00000+0 0  9997
2 28628   3.6227  35.2427 0002796  71.8165 285.1389  1.00271843 63206
NOAA 18                 
1 28654U 05018A   22187.11605772  .00000141  00000+0  10032-3 0  9992
2 28654  98.9484 257.5369 0013133 279.0866  80.8820 14.12749544882707
CUBESAT XI-V            
1 28895U 05043F   22186.83127174  .00000497  00000+0  10291-3 0  9991
2 28895  98.1091 317.9286 0017996  84.6756 275.6500 14.64371176890109
METOP-A                 
1 29499U 06044A   22186.89226852  .00000438  00000+0  67341-4 0  9997
2 29499  98.4494 232.0829 0196856 310.4994  37.5029 14.67263115813378
CARTOSAT-2 (IRS-P7)     
1 29710U 07001B   22186.86494090  .00007451  00000+0  18556-3 0  9990
2 29710  97.8674 293.4052 0149205 353.4498   6.4787 15.29845936839053
FALCONSAT-3             
1 30776U 07006E   22186.56949606  .00022020  00000+0  32447-3 0  9998
2 30776  35.4303 141.4911 0004779 254.1519 105.8687 15.54455074852402
CAPE-1                  
1 31130U 07012P   22186.77864001  .00000342  00000+0  82212-4 0  9997
2 31130  98.2699 127.2180 0093852 236.1938 123.0298 14.57138950807769
CARTOSAT-2A             
1 32783U 08021A   22186.75796051  .00000489  00000+0  73785-4 0  9997
2 32783  97.9633 246.8044 0014185 108.4058 251.8682 14.78661644765721
CUTE-1.7+APD II (CO-65) 
1 32785U 08021C   22186.83568353  .00000913  00000+0  10101-3 0  9994
2 32785  97.6581 157.1028 0012872 165.6460 194.5126 14.89638795769296
COMPASS-1               
1 32787U 08021E   22186.91163954  .00002355  00000+0  21514-3 0  9995
2 32787  97.5634 168.2739 0013851  84.4710 275.8091 14.95896881770815
AAUSAT-II               
1 32788U 08021F   22186.94600100  .00002439  00000+0  21328-3 0  9994
2 32788  97.5332 171.6074 0012464  63.5006 296.7494 14.97592756771306
DELFI-C3 (DO-64)        
1 32789U 08021G   22186.85650860  .00006871  00000+0  38017-3 0  9990
2 32789  97.3379 212.4920 0008137 255.2069 104.8262 15.14134483774710
SEEDS II (CO-66)        
1 32791U 08021J   22186.87731782  .00001766  00000+0  17605-3 0  9996
2 32791  97.6121 162.6168 0014068 124.0569 236.1988 14.92739059769947
YUBILEINY (RS-30)       
1 32953U 08025A   22186.88967979  .00000024  00000+0  10000-3 0  9998
2 32953  82.5024 172.4713 0018346 217.4285 142.5519 12.43111543640621
FENGYUN 3A              
1 32958U 08026A   22186.87498676  .00000036  00000+0  37478-4 0  9998
2 32958  98.5033 148.7547 0008305 337.7557  22.3258 14.18725642730839
PRISM (HITOMI)          
1 33493U 09002B   22186.89106968  .00002783  00000+0  22904-3 0  9998
2 33493  98.2256 174.5086 0016812 111.6347 248.6668 14.99920153731743
STARS (KUKAI)           
1 33498U 09002G   22186.70719799  .00000739  00000+0  10486-3 0  9996
2 33498  98.1672  79.0177 0010319 185.6282 174.4815 14.80028769724131
KKS-1 (KISEKI)          
1 33499U 09002H   22186.81694607  .00000397  00000+0  65412-4 0  9999
2 33499  98.2158  69.1657 0007642 255.1177 104.9186 14.76037861722951
NOAA 19                 
1 33591U 09005A   22187.11948949  .00000107  00000+0  82907-4 0  9997
2 33591  99.1463 221.6473 0014727 133.0907 227.1499 14.12584307691087
SWISSCUBE               
1 35932U 09051B   22186.57644257  .00000357  00000+0  90519-4 0  9998
2 35932  98.5670  43.0185 0007589   2.0582 358.0645 14.56883789678737
BEESAT-1                
1 35933U 09051C   22186.80604308  .00000308  00000+0  79630-4 0  9995
2 35933  98.5611  44.8718 0006070  16.3320 343.8072 14.56897744678840
ITUPSAT1                
1 35935U 09051E   22186.83470130  .00000270  00000+0  72517-4 0  9999
2 35935  98.5712  44.9523 0008400  15.9664 344.1796 14.56005163678555
XIWANG-1 (HOPE-1)       
1 36122U 09072B   22186.89207647 -.00000028  00000+0  40294-4 0  9997
2 36122 100.1834 157.5759 0006880 302.4609  57.5839 13.16369897603232
CARTOSAT-2B             
1 36795U 10035A   22186.93119056  .00000263  00000+0  42954-4 0  9990
2 36795  97.9589 247.1083 0013732 178.8363 181.2887 14.78650474646799
TISAT 1                 
1 36799U 10035E   22187.15194461  .00001394  00000+0  14005-3 0  9993
2 36799  98.1810  38.3320 0012764  39.9889 320.2267 14.92961416650756
FENGYUN 3B              
1 37214U 10059A   22187.17050319  .00000007  00000+0  27779-4 0  9990
2 37214  99.0909 193.4761 0021327 304.5115  55.4042 14.14258954603608
JUGNU                   
1 37839U 11058B   22186.84677108  .00000349  00000+0  43906-4 0  9996
2 37839  19.9620  63.9005 0018822 359.7801  80.4811 14.12790945554745
SRMSAT                  
1 37841U 11058D   22186.60067705  .00000317  00000+0  28696-4 0  9993
2 37841  19.9708 145.2219 0011895 182.5826 333.1563 14.10758803553801
M-CUBED & EXP-1 PRIME   
1 37855U 11061F   22186.89390005  .00004878  00000+0  21683-3 0  9999
2 37855 101.7118 315.7305 0152393   7.0953 353.2370 15.12645472584029
HORYU-2                 
1 38340U 12025D   22186.77549177  .00000787  00000+0  12007-3 0  9998
2 38340  98.1944 265.4437 0011901 162.8417 197.3196 14.76678846534945
METOP-B                 
1 38771U 12049A   22186.86700347  .00000035  00000+0  36179-4 0  9993
2 38771  98.6945 246.3465 0001421  63.7499  47.7751 14.21493313508358
SARAL                   
1 39086U 13009A   22186.83563644  .00000027  00000+0  26180-4 0  9996
2 39086  98.5477  12.2012 0001092 148.5893 211.5356 14.32049800489113
AAUSAT 3                
1 39087U 13009B   22187.22456784  .00000229  00000+0  93152-4 0  9994
2 39087  98.3985  26.3113 0011575 206.4797 153.5794 14.36193433490274
STRAND-1                
1 39090U 13009E   22186.98198019  .00000078  00000+0  42251-4 0  9990
2 39090  98.4039  24.6340 0008342 209.6156 150.4558 14.35299072490071
BRITE-AUSTRIA           
1 39091U 13009F   22186.82753557  .00000049  00000+0  32165-4 0  9999
2 39091  98.4054  23.6546 0009642 218.2799 141.7704 14.35280147490067
UNIBRITE                
1 39092U 13009G   22187.12972769  .00000051  00000+0  32939-4 0  9994
2 39092  98.4088  23.7145 0008663 211.5540 148.5127 14.35150683490079
SOMP                    
1 39134U 13015E   22186.88065492  .00008659  00000+0  30894-3 0  9995
2 39134  64.8628   1.3961 0035204 276.7938  82.9189 15.28886394509670
BEESAT-3                
1 39135U 13015F   22186.89654850  .00005886  00000+0  24445-3 0  9993
2 39135  64.8666  37.8338 0038346 282.8307  76.8539 15.24147169508927
BEESAT-2                
1 39136U 13015G   22186.89091564  .00005413  00000+0  23573-3 0  9998
2 39136  64.8750  46.1134 0017377 297.2881  62.6477 15.23156039508724
NEE-01 PEGASO           
1 39151U 13018B   22187.02437725  .00000742  00000+0  10259-3 0  9994
2 39151  97.9929 292.6244 0016636 190.3344 169.7529 14.80972735496432
CUBEBUG-1 (CAPITAN BETO)
1 39153U 13018D   22186.88048548  .00000876  00000+0  11795-3 0  9994
2 39153  98.0146 296.9723 0016602 185.3728 174.7309 14.81672712496489
